{"type":"FeatureCollection","name":"Tollebeek OT.02 current owner peilgebied geometry","crs":{"type":"name","properties":{"name":"EPSG:28992"}},"project_metadata":{"spatial_unit_id":"TOLLEBEEK_OT02_CURRENT","admission_scope":"Current owner-hosted OT.02 peilgebied geometry for spatial identity/context only","review_date":"2026-09-16","source_service":"https://services.arcgis.com/84oM5NriBghHdQ3Z/ArcGIS/rest/services/zzl_Peilgebieden/FeatureServer","source_service_item_id":"b5db31163fa74c09825de1d42bb12ce8","source_layer_id":0,"source_layer_name":"Peilgebieden Besluit","source_objectid":232,"source_globalid":"c07f3d9b-c063-42c3-ba0a-1ff65a1b9c6a","source_status_code":4,"source_status_label":"vigerend definitief","source_feature_last_edit_utc":"2025-05-12T11:47:43.064Z","source_layer_data_last_edit_utc":"2025-05-12T11:48:03Z","geometry_sha256":"6a1bf94807ead57bbc347154664c003610dad4694c150ef3b1f1ad40b1b73414","shape_area_m2":14965219.570419312,"shape_area_ha":1496.521957041931,"source_area_attribute_GPGOPPVL":1506,"crosscheck":"Owner peilbesluit surfaces contain OT.02 status 4 with identical Shape__Area/Shape__Length; official 2016 Urk peilbesluit context lists OT.02 at 1497 ha and NAP -6.20 m.","guardrail":"This polygon is not the affected compaction area. The GPGOPPVL=1506 attribute conflicts with the geometry-derived ~1496.52 ha and is not admitted as geometry area. Use the polygon as spatial identity; any affected area requires separate evidence."},"features":[{"type":"Feature","id":232,"geometry":{"type":"Polygon","coordinates":[[[174942.7218,524696.832500001],[174943.246800002,524644.5962],[174941.832800001,524525.159200001],[174935.943799999,523986.861200003],[174934.467799999,523864.869199998],[174951.343800001,523864.4852],[174976.7588,523864.485200002],[175179.557799999,523862.851199998],[175378.3028,523860.740200003],[175682.651799999,523858.482200002],[176000.873799998,523856.382200002],[176174.4758,523854.889199997],[176197.058800001,523854.5852],[176212.288800001,523852.8972],[176221.358800001,523850.485199998],[176233.265799999,523844.899199999],[176242.425799999,523839.228199999],[176250.9998,523832.661200002],[176259.123799998,523825.273200002],[176265.489799999,523818.522200002],[176271.592799999,523809.8012],[176277.217799999,523800.244199999],[176283.224800002,523788.195200001],[176294.586800002,523764.780200003],[176309.4888,523733.622200001],[176343.6358,523662.3482],[176391.531800002,523560.354200004],[176392.882300001,523556.682199998],[176393.108800001,523553.685199999],[176393.7828,523551.549199998],[176394.7588,523549.9852],[176412.963799998,523512.152199998],[176459.860800002,523414.874200004],[176501.8508,523326.785199998],[176526.206799999,523276.459199999],[176572.619800001,523181.703200003],[176589.093800001,523146.9902],[176599.090799999,523126.4822],[176604.588799999,523115.768199999],[176609.2588,523108.185199999],[176616.5858,523098.346200003],[176625.974800002,523086.378200001],[176667.8838,523032.536200002],[176786.560800001,522878.394200003],[176818.2238,522837.255199997],[176840.695799999,522808.019200002],[176856.879799999,522784.6142],[176877.761799999,522755.237199997],[176905.038800001,522719.3162],[176932.020799998,522683.950200001],[176965.8968,522638.8952],[176976.880800001,522623.308200001],[176558.936799999,522328.295200001],[176282.1688,522132.683199998],[175709.902800001,521728.279199998],[175657.432799999,521692.068200001],[175530.919799998,521602.455200003],[175459.379799999,521551.624200002],[175256.0568,521408.166200003],[175160.042800002,521341.145199998],[175088.055799998,521294.401199998],[175061.800799999,521331.002199998],[174963.696800001,521464.7392],[174812.273800001,521672.953200003],[174757.626800001,521747.449200001],[174727.3488,521789.263200002],[174716.048799999,521804.588200003],[174704.320799999,521820.627199999],[174699.767200001,521826.9865],[174693.770799998,521822.5902],[174688.376899999,521818.4232],[175074.412799999,521285.880200001],[174973.458799999,521230.355199999],[174962.101799998,521245.498200001],[174907.838799998,521323.738200003],[174868.718800001,521367.905200001],[174835.908799998,521400.7152],[174793.003800001,521433.525199998],[174746.312800001,521461.2872],[174707.1928,521484.002200001],[174652.9298,521500.407200002],[174583.523800001,521523.122200003],[174559.547800001,521526.908199999],[174528.241799999,521526.767199998],[174525.2148,521524.992200002],[174518.822799999,521524.931200001],[174511.2258,521527.222199997],[174504.8948,521530.898200002],[174500.432799999,521536.683200002],[174498.020799998,521542.710200002],[174492.222800002,521549.790199998],[174486.424800001,521552.787200002],[174444.454799999,521566.191200001],[174384.6028,521584.185199998],[174379.507800002,521579.563200001],[174374.755800001,521576.4392],[174369.7458,521574.171199999],[174350.412799999,521567.260200001],[174339.494800001,521562.896200002],[174334.956799999,521559.515200001],[174330.246800002,521555.7062],[174327.592799999,521551.641199999],[174325.873799998,521547.119199998],[174325.7458,521543.910200001],[174326.773800001,521540.101199999],[174328.4428,521536.720200001],[174330.840799999,521533.553200001],[174332.8528,521528.761199997],[174332.809799999,521524.524200002],[174332.5458,521521.628200001],[174331.261799999,521518.1622],[174328.992800001,521515.295200003],[174325.138799999,521512.727200005],[174316.742800001,521507.388799999],[174310.496800002,521502.970199998],[174302.773800001,521497.593199998],[174276.228799999,521478.207199998],[174271.562800001,521473.329199999],[174267.364500001,521471.073099999],[174256.204,521462.506000001],[174270.498100001,521440.980700001],[174330.548999999,521350.551],[174150.370000001,521219.352],[174094.952,521267.3816],[174058.532000002,521298.945999999],[174042.787999999,521319.063000003],[173994.081,521384.44],[173943.552000001,521350.864000001],[173894.579999998,521420.701999999],[173828.223999999,521375.848999996],[173830.228,521373.210000001],[173824.783300001,521369.191400002],[173817.061000001,521363.809000001],[173832.120000001,521343.024000001],[173837.348999999,521335.559000001],[173839.859000001,521329.749000004],[173841.765000001,521323.844000001],[173843.649999998,521316.400000002],[173846.500999998,521308.721999999],[173849.978999998,521301.285999999],[173853.844000001,521294.526000001],[173857.660999998,521288.973000003],[173860.230999999,521286.193999997],[173862.984999999,521285.084],[173868.153999999,521284.697],[173872.502,521285.469999999],[173873.903000001,521284.794000003],[173874.579,521282.573],[173874.868999999,521280.159000003],[173876.125,521277.937],[173879.313999999,521274.992],[173883.245999999,521272.367000001],[173887.98,521268.842],[173891.748,521265.510000001],[173895.177999999,521262.033],[173898.511999998,521257.832],[173900.831,521253.776000002],[173903.199999999,521247.527],[173904.263,521243.085000002],[173904.890999999,521237.773],[173905.519000001,521230.723000002],[173906.002,521226.088000001],[173907.653999999,521221.858999999],[173909.925000001,521218.526999999],[173913.693,521214.711999999],[173919.539000001,521208.338],[173927.085000001,521200.787000003],[173936.988000002,521187.701000003],[173945.787999999,521176.331999999],[173950.425999999,521169.621],[173958.02,521157.721999998],[173965.170000002,521145.988000001],[173975.133000001,521131.477000004],[173979.82,521124.283000001],[173992.004000001,521109.722000001],[173998.526000001,521101.126999999],[174005.338,521092.339000004],[174008.000999998,521087.191000001],[174011.285999998,521080.431000002],[174013.653000001,521074.732999999],[174016.793000001,521067.973000004],[174019.989999998,521062.586000002],[174023.274999999,521057.709],[174027.43,521053.363000003],[174031.923,521048.486000002],[174036.366999999,521045.154000002],[174041.3915,521041.822499999],[174042.116,521038.539],[174043.469000001,521032.407000003],[174044.491,521028.603999998],[174045.747000001,521025.852],[174047.342,521023.582],[174049.177000001,521021.264999999],[174051.351,521019.043000001],[174053.670000002,521016.919],[174056.616999999,521014.649],[174060.144000001,521011.607000001],[174062.897,521009.145000002],[174065.952,521004.967999999],[174070.879999999,520998.063000004],[174073.440000001,520993.765000002],[174076.629000001,520989.033000001],[174078.609999999,520984.736000003],[174081.949999999,520978.196],[174083.688999999,520974.333000001],[174085.813999999,520971.725000001],[174088.037000001,520969.166000001],[174091.467,520966.992999998],[174093.495999999,520965.448],[174097.175999999,520960.745],[174099.157000002,520957.027000001],[174100.460999999,520953.502000001],[174102.199999999,520949.349000003],[174104.616,520944.52],[174107.031,520941.285000001],[174112.987,520936.48],[174116.127,520934.355000004],[174118.736000001,520931.216999999],[174124.919,520923.587000001],[174129.756999999,520915.741000004],[174132.752,520911.443999999],[174135.070999999,520905.166000004],[174139.758000001,520895.315999999],[174141.447999999,520891.405],[174142.656,520889.521000003],[174144.612500001,520888.651999999],[174147.438999999,520889.182999998],[174149.877,520888.217999998],[174172.778000001,520851.963],[174203.844999999,520809.594999999],[174210.158,520801.037000002],[174216.151999999,520802.418999999],[174221.147,520799.808000001],[174225.451000001,520799.883999999],[174233.136,520803.263999998],[174279.936000001,520837.368000002],[174307.480999999,520797.124000003],[174326.785999998,520769.204000001],[174335.3858,520758.274500002],[174256.9518,520703.144200001],[173788.887800001,520372.937199999],[173759.652800001,520414.055199998],[173754.651799999,520410.5092],[173753.794799998,520412.310199997],[173751.096799999,520410.637200003],[173749.106800001,520409.064199997],[173749.8968,520407.147199998],[173747.7788,520405.701200001],[173744.481800001,520403.357200002],[173773.709800001,520362.229200001],[173730.513799999,520331.7562],[172853.7938,519712.776200001],[172678.4498,519589.386200002],[172503.105799999,519465.185199997],[172286.3618,519311.760200001],[172152.708799999,519217.559199998],[172136.658799998,519240.5642],[172242.575800002,519320.281200002],[172015.1208,519636.841200001],[172801.172800001,520201.141199999],[172876.639800001,520256.230200001],[172769.8838,520406.845199996],[172685.417800002,520525.7952],[172663.016800001,520557.623199999],[172587.2788,520664.093199998],[172418.865800001,520900.260200003],[172347.602800001,520999.772199999],[172206.185800001,521199.014199998],[172196.757800002,521210.013199998],[172182.301800001,521224.4692],[172187.330800001,521230.126200003],[172195.500799999,521242.6962],[172208.3858,521262.1802],[172219.698800001,521281.036200003],[172233.526799999,521307.4352],[172244.8398,521331.004200002],[172251.753800001,521347.346200001],[172261.4958,521371.544199998],[172266.523800001,521386.9432],[172271.866799999,521405.171200003],[172277.208799999,521427.798200002],[172281.608800001,521447.282200003],[172288.5218,521484.364199999],[172299.206799999,521545.018199998],[172321.205800001,521664.438199999],[172325.013799999,521689.048200002],[172273.8928,521691.404199999],[172128.775800001,521693.289199999],[171969.0528,521695.646200004],[171892.9608,521696.588199999],[171761.035799999,521697.766199999],[171650.7848,521699.653200001],[171483.993799999,521701.774199998],[171459.503800001,521702.208200003],[171441.003800001,521702.351200002],[171415.967799999,521702.946199998],[171299.0528,521704.259200001],[171304.968400002,522405.112000001],[171453.065499999,522405.111999999],[171452.930199999,522414.240499999],[171453.065499999,522422.971399999],[171305.1164,522422.595900001],[171310.808800001,523103.2275],[171471.059999999,523101.176000002],[171542.658,523100.165],[171774.059,523097.361000002],[171962.919,523095.258000003],[172253.221000001,523091.287000003],[172403.515000001,523089.417000001],[172426.888,523088.716],[172427.122000001,523119.336999999],[172430.862,523502.203000005],[172433.432999998,523784.559],[172433.666999999,523851.642000002],[172444.419,523852.109000002],[172462.182999998,523852.343],[172476.206999999,523854.214000001],[172502.853,523860.057],[172514.072999999,523861.693999997],[172525.526000001,523862.629000002],[172534.173999999,523863.096],[172684.701000001,523864.265999997],[173017.076000001,523867.54],[173213.649999999,523869.176],[173252.684,523869.41],[173283.771000002,523868.475],[173283.07,523944.673999999],[173281.434,524260.922],[173280.265000001,524471.52],[173278.629000001,524683.754999999],[173280.030999999,524718.582],[173305.509,524718.348000001],[173364.410999998,524717.412999997],[173602.355999999,524714.844000002],[173840.067000002,524711.572999999],[174072.401999999,524708.302000003],[174298.193,524705.730999998],[174511.362,524702.927000001],[174672.406,524700.712999999],[174907.278999999,524697.886999999],[174942.7218,524696.832500001]]]}},"properties":{"OBJECTID":232,"GPGIDENT":"OT.02","GPGNAAM":"OT02","GPGSOORT":99,"GPGOPPVL":1506,"GPGZMRPL":-6.2,"GPGWNTPL":-6.2,"OSMOMSCH":" ","IWS_GPGSTATU":4,"IWS_GPGBEHER":1,"IWS_GPGONDP":null,"IWS_GPGBOVP":null,"IWS_GPGAFWBOVP":null,"IWS_INUNDATIEPEIL":-5.2,"IWS_ONDERGRENS_ZOMERPEIL":null,"IWS_BOVENGRENS_ZOMERPEIL":null,"RICHTING":0,"IWS_MEMO":"https://www2.zuiderzeeland.nl/data/gmaps/peilbesluiten/NOP_Peilbesluit_Tollebeek_2010.pdf","CREATED_USER":"admin_zuiderzeeland","CREATED_DATE":1723716283939,"LAST_EDITED_USER":"j.devries_zzl","LAST_EDITED_DATE":1747050463064,"OPMERKINGEN":"beheermarge +/- 20 cm","GLOBALID":"c07f3d9b-c063-42c3-ba0a-1ff65a1b9c6a","Shape__Area":14965219.570419312,"Shape__Length":23996.24385283598,"WinterpeilV2":null,"ZomerpeilV2":null,"Peilnum":null}}]}
